EUTELSAT 7A             
1 28187U 04008A   26003.05461672  .00000102  00000+0  00000+0 0  9991
2 28187   5.4116  74.0030 0001430 231.5125  37.6118  1.00270768 79694
EUTELSAT 174A           
1 28924U 05052A   26003.06732417  .00000010  00000+0  00000+0 0  9997
2 28924   3.8010  78.5976 0006338 206.5632  15.7392  1.00271771 50676
EUTELSAT HOTBIRD 13B    
1 29270U 06032A   26003.11074443  .00000159  00000+0  00000+0 0  9999
2 29270   1.2358  84.1668 0003606 202.8182 248.6994  1.00272519 45651
EUTELSAT HOTBIRD 13C    
1 33459U 08065A   26003.17878287 -.00000281  00000+0  00000+0 0  9992
2 33459   2.5265  81.1782 0003744 203.5781 192.0984  1.00269273 45694
EUTELSAT 36B            
1 36101U 09065A   26003.11421113  .00000117  00000+0  00000+0 0  9993
2 36101   0.0788  57.6589 0005811 223.3541 273.3536  1.00268592 59052
EUTELSAT KA-SAT 9A      
1 37258U 10069A   26003.09003454  .00000067  00000+0  00000+0 0  9998
2 37258   0.0507 338.9130 0001384 204.2445 320.9626  1.00274139 42352
EUTELSAT 7 WEST A       
1 37816U 11051A   26003.10114140 -.00000056  00000+0  00000+0 0  9996
2 37816   0.0635  12.8775 0005054 226.1821 252.7642  1.00271247 52220
EUTELSAT 16A            
1 37836U 11057A   26003.09003454  .00000108  00000+0  00000+0 0  9994
2 37836   0.0564  11.5253 0005501 272.2840 227.3202  1.00269560  5672
